G21         ; Set units to mm
G90         ; Absolute positioning
M4 S0       ; Enable Laser/Spindle (0 power)

;
; Operation:    0
; Type:         Laser Cut
; Paths:        4
; Passes:       1
; Cut rate:     200 mm/min
;


; Pass 0

; Pass 0 Path 0
G0 X21.72 Y36.28
G1 X22.00 Y37.00 S1000.00 F200
G1 X22.00 Y43.00
G1 X21.72 Y43.72
G1 X21.00 Y44.00
G1 X15.00 Y44.00
G1 X14.28 Y43.72
G1 X14.00 Y43.00
G1 X14.00 Y37.00
G1 X14.28 Y36.28
G1 X15.00 Y36.00
G1 X21.00 Y36.00
G1 X21.72 Y36.28
G1 X21.72 Y36.28

; Pass 0 Path 1
G0 X21.00 Y34.00
G1 X15.00 Y34.00 S1000.00 F200
G1 X14.28 Y33.72
G1 X14.00 Y33.00
G1 X14.00 Y27.00
G1 X14.28 Y26.28
G1 X15.00 Y26.00
G1 X21.00 Y26.00
G1 X21.72 Y26.28
G1 X22.00 Y27.00
G1 X22.00 Y33.00
G1 X21.72 Y33.72
G1 X21.00 Y34.00

; Pass 0 Path 2
G0 X12.00 Y33.00
G1 X11.72 Y33.72 S1000.00 F200
G1 X11.00 Y34.00
G1 X5.00 Y34.00
G1 X4.28 Y33.72
G1 X4.00 Y33.00
G1 X4.00 Y27.00
G1 X4.28 Y26.28
G1 X5.00 Y26.00
G1 X11.00 Y26.00
G1 X11.72 Y26.28
G1 X12.00 Y27.00
G1 X12.00 Y33.00

; Pass 0 Path 3
G0 X11.00 Y36.00
G1 X11.72 Y36.28 S1000.00 F200
G1 X12.00 Y37.00
G1 X12.00 Y43.00
G1 X11.72 Y43.72
G1 X11.00 Y44.00
G1 X5.00 Y44.00
G1 X4.28 Y43.72
G1 X4.00 Y43.00
G1 X4.00 Y37.00
G1 X4.28 Y36.28
G1 X5.00 Y36.00
G1 X11.00 Y36.00


;
; Operation:    1
; Type:         Laser Cut
; Paths:        5
; Passes:       1
; Cut rate:     200 mm/min
;


; Pass 0

; Pass 0 Path 0
G0 X21.94 Y24.15
G1 X22.80 Y24.55 S1000.00 F200
G1 X23.49 Y25.20
G1 X23.88 Y26.06
G1 X24.00 Y27.00
G1 X24.00 Y43.00
G1 X23.85 Y43.94
G1 X23.45 Y44.80
G1 X22.80 Y45.49
G1 X21.94 Y45.88
G1 X21.00 Y46.00
G1 X5.00 Y46.00
G1 X4.06 Y45.88
G1 X3.20 Y45.49
G1 X2.55 Y44.80
G1 X2.15 Y43.94
G1 X2.00 Y43.00
G1 X2.00 Y27.00
G1 X2.15 Y26.06
G1 X2.55 Y25.20
G1 X3.20 Y24.51
G1 X4.06 Y24.12
G1 X5.00 Y24.00
G1 X21.00 Y24.00
G1 X21.94 Y24.15
G1 X21.94 Y24.15

; Pass 0 Path 1
G0 X27.00 Y24.51
G1 X30.51 Y21.00 S1000.00 F200
G1 X35.49 Y21.00
G1 X39.00 Y24.51
G1 X39.00 Y29.49
G1 X35.49 Y33.00
G1 X30.51 Y33.00
G1 X27.00 Y29.49
G1 X27.00 Y24.51

; Pass 0 Path 2
G0 X33.01 Y18.75
G1 X31.03 Y13.06 S1000.00 F200
G1 X25.01 Y12.94
G1 X29.81 Y9.30
G1 X28.07 Y3.53
G1 X33.01 Y6.97
G1 X37.96 Y3.53
G1 X36.21 Y9.30
G1 X41.01 Y12.94
G1 X34.99 Y13.06
G1 X33.01 Y18.75

; Pass 0 Path 3
G0 X34.07 Y35.00
G1 X37.00 Y37.93 S1000.00 F200
G1 X37.00 Y42.07
G1 X34.07 Y45.00
G1 X29.93 Y45.00
G1 X27.00 Y42.07
G1 X27.00 Y37.93
G1 X29.93 Y35.00
G1 X34.07 Y35.00

; Pass 0 Path 4
G0 X16.02 Y17.27
G1 X15.00 Y17.50 S1000.00 F200
G1 X4.00 Y17.50
G1 X2.98 Y17.27
G1 X2.26 Y16.52
G1 X2.00 Y15.50
G1 X2.00 Y4.50
G1 X2.26 Y3.48
G1 X2.98 Y2.73
G1 X4.00 Y2.50
G1 X15.00 Y2.50
G1 X16.02 Y2.76
G1 X16.77 Y3.48
G1 X17.00 Y4.50
G1 X17.00 Y15.50
G1 X16.74 Y16.52
G1 X16.02 Y17.27


;
; Operation:    2
; Type:         Laser Cut
; Paths:        1
; Passes:       1
; Cut rate:     200 mm/min
;


; Pass 0

; Pass 0 Path 0
G0 X50.00 Y50.00
G1 X0.00 Y50.00 S1000.00 F200
G1 X0.00 Y0.00
G1 X50.00 Y0.00
G1 X50.00 Y50.00
G1 X50.00 Y50.00
M5          ; Disable Laser/Spindle
